{"type": "FeatureCollection", "features": [ {"type": "Feature", "properties": {"norad_id": 30828, "name": "FENGYUN 1C DEB", "group": "fengyun-1c-debris", "lat": 7.118411228669185, "lon": 87.32541950001048, "alt_km": 787.5242812958095, "timestamp": "2025-12-07T14:37:05.483583+00:00", "meta": {"OBJECT_NAME": "FENGYUN 1C DEB", "OBJECT_ID": "1999-025AVN", "EPOCH": "2025-12-06T12:51:10.079712", "MEAN_MOTION": 14.76660331, "ECCENTRICITY": 0.02098802, "INCLINATION": 98.3771, "RA_OF_ASC_NODE": 87.2654, "ARG_OF_PERICENTER": 198.479, "MEAN_ANOMALY": 224.7909, "EPHEMERIS_TYPE": 0, "CLASSIFICATION_TYPE": "U", "NORAD_CAT_ID": 30828, "ELEMENT_SET_NO": 999, "REV_AT_EPOCH": 98565, "BSTAR": 0.0030539321, "MEAN_MOTION_DOT": 0.00030804, "MEAN_MOTION_DDOT": 0}, "tle": {"line1": "1 30828U 99025AVN 25340.53553333  .00030804  00000+0  30539-2 0  9996", "line2": "2 30828  98.3771  87.2654 0209880 198.4790 224.7909 14.76660331985658"}}, "geometry": {"type": "Point", "coordinates": [87.32541950001048, 7.118411228669185]}}, {"type": "Feature", "properties": {"norad_id": 30829, "name": "FENGYUN 1C DEB", "group": "fengyun-1c-debris", "lat": -46.36458858544314, "lon": 145.07161671399066, "alt_km": 884.5512415101712, "timestamp": "2025-12-07T14:37:05.483593+00:00", "meta": {"OBJECT_NAME": "FENGYUN 1C DEB", "OBJECT_ID": "1999-025AVP", "EPOCH": "2025-12-05T17:13:09.414048", "MEAN_MOTION": 14.08636872, "ECCENTRICITY": 0.00357991, "INCLINATION": 98.7777, "RA_OF_ASC_NODE": 332.5563, "ARG_OF_PERICENTER": 354.6699, "MEAN_ANOMALY": 5.4085, "EPHEMERIS_TYPE": 0, "CLASSIFICATION_TYPE": "U", "NORAD_CAT_ID": 30829, "ELEMENT_SET_NO": 999, "REV_AT_EPOCH": 96334, "BSTAR": 0.00072278415, "MEAN_MOTION_DOT": 1.208e-05, "MEAN_MOTION_DDOT": 0}, "tle": {"line1": "1 30829U 99025AVP 25339.71747007  .00001208  00000+0  72278-3 0  9991", "line2": "2 30829  98.7777 332.5563 0035799 354.6699   5.4085 14.08636872963343"}}, "geometry": {"type": "Point", "coordinates": [145.07161671399066, -46.36458858544314]}}, {"type": "Feature", "properties": {"norad_id": 30830, "name": "FENGYUN 1C DEB", "group": "fengyun-1c-debris", "lat": 14.35734210581674, "lon": -32.109377303768845, "alt_km": 874.3726950892433, "timestamp": "2025-12-07T14:37:05.483603+00:00", "meta": {"OBJECT_NAME": "FENGYUN 1C DEB", "OBJECT_ID": "1999-025AVQ", "EPOCH": "2025-12-06T06:19:13.736352", "MEAN_MOTION": 14.12219687, "ECCENTRICITY": 0.00304327, "INCLINATION": 98.7292, "RA_OF_ASC_NODE": 328.8341, "ARG_OF_PERICENTER": 207.4559, "MEAN_ANOMALY": 169.2295, "EPHEMERIS_TYPE": 0, "CLASSIFICATION_TYPE": "U", "NORAD_CAT_ID": 30830, "ELEMENT_SET_NO": 999, "REV_AT_EPOCH": 96508, "BSTAR": 0.0004890844, "MEAN_MOTION_DOT": 8.6e-06, "MEAN_MOTION_DDOT": 0}, "tle": {"line1": "1 30830U 99025AVQ 25340.26335343  .00000860  00000+0  48908-3 0  9997", "line2": "2 30830  98.7292 328.8341 0030432 207.4559 169.2295 14.12219687965089"}}, "geometry": {"type": "Point", "coordinates": [-32.109377303768845, 14.35734210581674]}}, {"type": "Feature", "properties": {"norad_id": 30831, "name": "FENGYUN 1C DEB", "group": "fengyun-1c-debris", "lat": -48.60046088209092, "lon": -56.749504590618365, "alt_km": 834.8862781811886, "timestamp": "2025-12-07T14:37:05.483614+00:00", "meta": {"OBJECT_NAME": "FENGYUN 1C DEB", "OBJECT_ID": "1999-025AVR", "EPOCH": "2025-12-06T03:59:30.011712", "MEAN_MOTION": 14.31064501, "ECCENTRICITY": 0.00557186, "INCLINATION": 99.3282, "RA_OF_ASC_NODE": 132.4481, "ARG_OF_PERICENTER": 52.913, "MEAN_ANOMALY": 307.7125, "EPHEMERIS_TYPE": 0, "CLASSIFICATION_TYPE": "U", "NORAD_CAT_ID": 30831, "ELEMENT_SET_NO": 999, "REV_AT_EPOCH": 65156, "BSTAR": 0.00071106809, "MEAN_MOTION_DOT": 1.856e-05, "MEAN_MOTION_DDOT": 0}, "tle": {"line1": "1 30831U 99025AVR 25340.16631958  .00001856  00000+0  71107-3 0  9991", "line2": "2 30831  99.3282 132.4481 0055718  52.9130 307.7125 14.31064501651562"}}, "geometry": {"type": "Point", "coordinates": [-56.749504590618365, -48.60046088209092]}}, {"type": "Feature", "properties": {"norad_id": 30833, "name": "FENGYUN 1C DEB", "group": "fengyun-1c-debris", "lat": -30.858387192629294, "lon": 133.01023417215384, "alt_km": 824.9707729345573, "timestamp": "2025-12-07T14:37:05.483624+00:00", "meta": {"OBJECT_NAME": "FENGYUN 1C DEB", "OBJECT_ID": "1999-025AVT", "EPOCH": "2025-12-06T03:25:14.678400", "MEAN_MOTION": 14.26725949, "ECCENTRICITY": 0.00329058, "INCLINATION": 99.8447, "RA_OF_ASC_NODE": 125.4073, "ARG_OF_PERICENTER": 198.8303, "MEAN_ANOMALY": 161.1659, "EPHEMERIS_TYPE": 0, "CLASSIFICATION_TYPE": "U", "NORAD_CAT_ID": 30833, "ELEMENT_SET_NO": 999, "REV_AT_EPOCH": 64317, "BSTAR": 0.0010100517, "MEAN_MOTION_DOT": 2.405e-05, "MEAN_MOTION_DDOT": 0}, "tle": {"line1": "1 30833U 99025AVT 25340.14253100  .00002405  00000+0  10101-2 0  9997", "line2": "2 30833  99.8447 125.4073 0032905 198.8303 161.1659 14.26725949643172"}}, "geometry": {"type": "Point", "coordinates": [133.01023417215384, -30.858387192629294]}}, {"type": "Feature", "properties": {"norad_id": 30836, "name": "FENGYUN 1C DEB", "group": "fengyun-1c-debris", "lat": 32.12393494967013, "lon": 8.853059495832275, "alt_km": 863.3687526299882, "timestamp": "2025-12-07T14:37:05.483634+00:00", "meta": {"OBJECT_NAME": "FENGYUN 1C DEB", "OBJECT_ID": "1999-025AVW", "EPOCH": "2025-12-06T07:51:01.832256", "MEAN_MOTION": 14.11921767, "ECCENTRICITY": 0.00255176, "INCLINATION": 98.7458, "RA_OF_ASC_NODE": 13.1496, "ARG_OF_PERICENTER": 263.4888, "MEAN_ANOMALY": 96.3378, "EPHEMERIS_TYPE": 0, "CLASSIFICATION_TYPE": "U", "NORAD_CAT_ID": 30836, "ELEMENT_SET_NO": 999, "REV_AT_EPOCH": 61913, "BSTAR": 0.0006269689, "MEAN_MOTION_DOT": 1.106e-05, "MEAN_MOTION_DDOT": 0}, "tle": {"line1": "1 30836U 99025AVW 25340.32710454  .00001106  00000+0  62697-3 0  9995", "line2": "2 30836  98.7458  13.1496 0025517 263.4888  96.3378 14.11921767619131"}}, "geometry": {"type": "Point", "coordinates": [8.853059495832275, 32.12393494967013]}}, {"type": "Feature", "properties": {"norad_id": 30837, "name": "FENGYUN 1C DEB", "group": "fengyun-1c-debris", "lat": 27.148720872368067, "lon": -36.50150047295718, "alt_km": 854.6419213836834, "timestamp": "2025-12-07T14:37:05.483644+00:00", "meta": {"OBJECT_NAME": "FENGYUN 1C DEB", "OBJECT_ID": "1999-025AVX", "EPOCH": "2025-12-06T17:15:07.993728", "MEAN_MOTION": 14.14510373, "ECCENTRICITY": 0.00326954, "INCLINATION": 98.6782, "RA_OF_ASC_NODE": 327.1254, "ARG_OF_PERICENTER": 150.2948, "MEAN_ANOMALY": 26.8015, "EPHEMERIS_TYPE": 0, "CLASSIFICATION_TYPE": "U", "NORAD_CAT_ID": 30837, "ELEMENT_SET_NO": 999, "REV_AT_EPOCH": 96733, "BSTAR": 0.00053113832, "MEAN_MOTION_DOT": 9.81e-06, "MEAN_MOTION_DDOT": 0}, "tle": {"line1": "1 30837U 99025AVX 25340.71884252  .00000981  00000+0  53114-3 0  9991", "line2": "2 30837  98.6782 327.1254 0032695 150.2948  26.8015 14.14510373967330"}}, "geometry": {"type": "Point", "coordinates": [-36.50150047295718, 27.148720872368067]}}, {"type": "Feature", "properties": {"norad_id": 30838, "name": "FENGYUN 1C DEB", "group": "fengyun-1c-debris", "lat": 37.33707517206934, "lon": 82.1047569052744, "alt_km": 710.6434257198107, "timestamp": "2025-12-07T14:37:05.483654+00:00", "meta": {"OBJECT_NAME": "FENGYUN 1C DEB", "OBJECT_ID": "1999-025AVY", "EPOCH": "2025-12-06T18:03:24.595200", "MEAN_MOTION": 14.47572039, "ECCENTRICITY": 0.00336858, "INCLINATION": 99.0427, "RA_OF_ASC_NODE": 254.212, "ARG_OF_PERICENTER": 177.5442, "MEAN_ANOMALY": 182.592, "EPHEMERIS_TYPE": 0, "CLASSIFICATION_TYPE": "U", "NORAD_CAT_ID": 30838, "ELEMENT_SET_NO": 999, "REV_AT_EPOCH": 97227, "BSTAR": 0.0044571971, "MEAN_MOTION_DOT": 0.00016511, "MEAN_MOTION_DDOT": 0}, "tle": {"line1": "1 30838U 99025AVY 25340.75236800  .00016511  00000+0  44572-2 0  9999", "line2": "2 30838  99.0427 254.2120 0033685 177.5442 182.5920 14.47572039972272"}}, "geometry": {"type": "Point", "coordinates": [82.1047569052744, 37.33707517206934]}}, {"type": "Feature", "properties": {"norad_id": 30840, "name": "FENGYUN 1C DEB", "group": "fengyun-1c-debris", "lat": 19.959433005035038, "lon": -9.827459095647383, "alt_km": 536.4543712055774, "timestamp": "2025-12-07T14:37:05.483665+00:00", "meta": {"OBJECT_NAME": "FENGYUN 1C DEB", "OBJECT_ID": "1999-025AWA", "EPOCH": "2025-12-06T20:27:00.137952", "MEAN_MOTION": 14.61016444, "ECCENTRICITY": 0.02184326, "INCLINATION": 98.0228, "RA_OF_ASC_NODE": 352.3742, "ARG_OF_PERICENTER": 29.0715, "MEAN_ANOMALY": 332.2444, "EPHEMERIS_TYPE": 0, "CLASSIFICATION_TYPE": "U", "NORAD_CAT_ID": 30840, "ELEMENT_SET_NO": 999, "REV_AT_EPOCH": 73045, "BSTAR": 0.0012464916, "MEAN_MOTION_DOT": 8.542e-05, "MEAN_MOTION_DDOT": 0}, "tle": {"line1": "1 30840U 99025AWA 25340.85208493  .00008542  00000+0  12465-2 0  9991", "line2": "2 30840  98.0228 352.3742 0218432  29.0715 332.2444 14.61016444730458"}}, "geometry": {"type": "Point", "coordinates": [-9.827459095647383, 19.959433005035038]}}, {"type": "Feature", "properties": {"norad_id": 30843, "name": "FENGYUN 1C DEB", "group": "fengyun-1c-debris", "lat": 4.423220874867151, "lon": 52.269975364336084, "alt_km": 787.5717261381478, "timestamp": "2025-12-07T14:37:05.483675+00:00", "meta": {"OBJECT_NAME": "FENGYUN 1C DEB", "OBJECT_ID": "1999-025AWD", "EPOCH": "2025-12-06T22:03:49.542624", "MEAN_MOTION": 14.52458949, "ECCENTRICITY": 0.01488412, "INCLINATION": 98.843, "RA_OF_ASC_NODE": 52.2333, "ARG_OF_PERICENTER": 137.1135, "MEAN_ANOMALY": 224.1781, "EPHEMERIS_TYPE": 0, "CLASSIFICATION_TYPE": "U", "NORAD_CAT_ID": 30843, "ELEMENT_SET_NO": 999, "REV_AT_EPOCH": 99240, "BSTAR": 0.00037598785, "MEAN_MOTION_DOT": 1.717e-05, "MEAN_MOTION_DDOT": 0}, "tle": {"line1": "1 30843U 99025AWD 25340.91932341  .00001717  00000+0  37599-3 0  9990", "line2": "2 30843  98.8430  52.2333 0148841 137.1135 224.1781 14.52458949992407"}}, "geometry": {"type": "Point", "coordinates": [52.269975364336084, 4.423220874867151]}}]}